HAWK-2C                 
1 47502U 21006CT  26068.67595434  .00008129  00000+0  25493-3 0  9997
2 47502  97.2417 114.9961 0006943 184.0877 176.0310 15.33286436284247
STARLINK-2314           
1 47788U 21018B   26068.67752823  .00002216  00000+0  86930-4 0  9998
2 47788  53.1611 219.7915 0001294  78.4558 281.6588 15.30196735277060
